CCSDS_OMM_VERS = 2.0
CREATION_DATE  = 
ORIGINATOR     = 

OBJECT_NAME    = STARLINK-36485
OBJECT_ID      = 2026-002H
CENTER_NAME    = EARTH
REF_FRAME      = TEME
TIME_SYSTEM    = UTC
MEAN_ELEMENT_THEORY = SGP/SGP4

EPOCH          = 2026-01-27T20:00:01.999008
MEAN_MOTION    = 15.56518183
ECCENTRICITY   = .000166
INCLINATION    = 42.9992
RA_OF_ASC_NODE = 198.0282
ARG_OF_PERICENTER = 282.2657
MEAN_ANOMALY   = 205.1371

EPHEMERIS_TYPE = 0
CLASSIFICATION_TYPE = U
NORAD_CAT_ID   = 67312
ELEMENT_SET_NO = 999
REV_AT_EPOCH   = 485
BSTAR          = -.32368E-1
MEAN_MOTION_DOT = -.2098272E-1
MEAN_MOTION_DDOT = 0

CCSDS_OMM_VERS = 2.0
CREATION_DATE  = 
ORIGINATOR     = 

OBJECT_NAME    = STARLINK-36445
OBJECT_ID      = 2026-002J
CENTER_NAME    = EARTH
REF_FRAME      = TEME
TIME_SYSTEM    = UTC
MEAN_ELEMENT_THEORY = SGP/SGP4

EPOCH          = 2026-01-27T20:00:01.999008
MEAN_MOTION    = 15.56522104
ECCENTRICITY   = .0001489
INCLINATION    = 42.9991
RA_OF_ASC_NODE = 198.0229
ARG_OF_PERICENTER = 282.4636
MEAN_ANOMALY   = 206.8571

EPHEMERIS_TYPE = 0
CLASSIFICATION_TYPE = U
NORAD_CAT_ID   = 67313
ELEMENT_SET_NO = 999
REV_AT_EPOCH   = 500
BSTAR          = -.32444E-1
MEAN_MOTION_DOT = -.2102795E-1
MEAN_MOTION_DDOT = 0

CCSDS_OMM_VERS = 2.0
CREATION_DATE  = 
ORIGINATOR     = 

OBJECT_NAME    = STARLINK-36476
OBJECT_ID      = 2026-002K
CENTER_NAME    = EARTH
REF_FRAME      = TEME
TIME_SYSTEM    = UTC
MEAN_ELEMENT_THEORY = SGP/SGP4

EPOCH          = 2026-01-27T20:00:01.999008
MEAN_MOTION    = 15.56521805
ECCENTRICITY   = .000141
INCLINATION    = 42.9991
RA_OF_ASC_NODE = 198.0190
ARG_OF_PERICENTER = 284.0223
MEAN_ANOMALY   = 207.2144

EPHEMERIS_TYPE = 0
CLASSIFICATION_TYPE = U
NORAD_CAT_ID   = 67314
ELEMENT_SET_NO = 999
REV_AT_EPOCH   = 485
BSTAR          = -.32443E-1
MEAN_MOTION_DOT = -.2102645E-1
MEAN_MOTION_DDOT = 0

CCSDS_OMM_VERS = 2.0
CREATION_DATE  = 
ORIGINATOR     = 

OBJECT_NAME    = STARLINK-36463
OBJECT_ID      = 2026-002L
CENTER_NAME    = EARTH
REF_FRAME      = TEME
TIME_SYSTEM    = UTC
MEAN_ELEMENT_THEORY = SGP/SGP4

EPOCH          = 2026-01-27T20:00:01.999008
MEAN_MOTION    = 15.56524915
ECCENTRICITY   = .0001359
INCLINATION    = 42.9992
RA_OF_ASC_NODE = 198.0089
ARG_OF_PERICENTER = 284.2685
MEAN_ANOMALY   = 210.7998

EPHEMERIS_TYPE = 0
CLASSIFICATION_TYPE = U
NORAD_CAT_ID   = 67315
ELEMENT_SET_NO = 999
REV_AT_EPOCH   = 491
BSTAR          = -.32492E-1
MEAN_MOTION_DOT = -.2105644E-1
MEAN_MOTION_DDOT = 0

CCSDS_OMM_VERS = 2.0
CREATION_DATE  = 
ORIGINATOR     = 

OBJECT_NAME    = STARLINK-36461
OBJECT_ID      = 2026-002M
CENTER_NAME    = EARTH
REF_FRAME      = TEME
TIME_SYSTEM    = UTC
MEAN_ELEMENT_THEORY = SGP/SGP4

EPOCH          = 2026-01-27T20:00:01.999008
MEAN_MOTION    = 15.56518836
ECCENTRICITY   = .000151
INCLINATION    = 42.9991
RA_OF_ASC_NODE = 198.0036
ARG_OF_PERICENTER = 285.0836
MEAN_ANOMALY   = 211.9038

EPHEMERIS_TYPE = 0
CLASSIFICATION_TYPE = U
NORAD_CAT_ID   = 67316
ELEMENT_SET_NO = 999
REV_AT_EPOCH   = 500
BSTAR          = -.32362E-1
MEAN_MOTION_DOT = -.2097862E-1
MEAN_MOTION_DDOT = 0

CCSDS_OMM_VERS = 2.0
CREATION_DATE  = 
ORIGINATOR     = 

OBJECT_NAME    = STARLINK-36450
OBJECT_ID      = 2026-002N
CENTER_NAME    = EARTH
REF_FRAME      = TEME
TIME_SYSTEM    = UTC
MEAN_ELEMENT_THEORY = SGP/SGP4

EPOCH          = 2026-01-27T20:00:01.999008
MEAN_MOTION    = 15.56520200
ECCENTRICITY   = .0001406
INCLINATION    = 42.9993
RA_OF_ASC_NODE = 197.9995
ARG_OF_PERICENTER = 287.1058
MEAN_ANOMALY   = 211.7988

EPHEMERIS_TYPE = 0
CLASSIFICATION_TYPE = U
NORAD_CAT_ID   = 67317
ELEMENT_SET_NO = 999
REV_AT_EPOCH   = 500
BSTAR          = -.32365E-1
MEAN_MOTION_DOT = -.2098062E-1
MEAN_MOTION_DDOT = 0

CCSDS_OMM_VERS = 2.0
CREATION_DATE  = 
ORIGINATOR     = 

OBJECT_NAME    = STARLINK-36498
OBJECT_ID      = 2026-002P
CENTER_NAME    = EARTH
REF_FRAME      = TEME
TIME_SYSTEM    = UTC
MEAN_ELEMENT_THEORY = SGP/SGP4

EPOCH          = 2026-01-27T20:00:01.999008
MEAN_MOTION    = 15.56515904
ECCENTRICITY   = .0001455
INCLINATION    = 42.9992
RA_OF_ASC_NODE = 197.9887
ARG_OF_PERICENTER = 286.4496
MEAN_ANOMALY   = 216.2899

EPHEMERIS_TYPE = 0
CLASSIFICATION_TYPE = U
NORAD_CAT_ID   = 67318
ELEMENT_SET_NO = 999
REV_AT_EPOCH   = 491
BSTAR          = -.32283E-1
MEAN_MOTION_DOT = -.2093038E-1
MEAN_MOTION_DDOT = 0

CCSDS_OMM_VERS = 2.0
CREATION_DATE  = 
ORIGINATOR     = 

OBJECT_NAME    = STARLINK-36470
OBJECT_ID      = 2026-002Q
CENTER_NAME    = EARTH
REF_FRAME      = TEME
TIME_SYSTEM    = UTC
MEAN_ELEMENT_THEORY = SGP/SGP4

EPOCH          = 2026-01-27T20:00:01.999008
MEAN_MOTION    = 15.56524362
ECCENTRICITY   = .0001442
INCLINATION    = 42.9991
RA_OF_ASC_NODE = 197.9945
ARG_OF_PERICENTER = 281.2298
MEAN_ANOMALY   = 219.5909

EPHEMERIS_TYPE = 0
CLASSIFICATION_TYPE = U
NORAD_CAT_ID   = 67319
ELEMENT_SET_NO = 999
REV_AT_EPOCH   = 491
BSTAR          = -.32477E-1
MEAN_MOTION_DOT = -.2104838E-1
MEAN_MOTION_DDOT = 0

CCSDS_OMM_VERS = 2.0
CREATION_DATE  = 
ORIGINATOR     = 

OBJECT_NAME    = STARLINK-36500
OBJECT_ID      = 2026-002R
CENTER_NAME    = EARTH
REF_FRAME      = TEME
TIME_SYSTEM    = UTC
MEAN_ELEMENT_THEORY = SGP/SGP4

EPOCH          = 2026-01-27T20:00:01.999008
MEAN_MOTION    = 15.56522576
ECCENTRICITY   = .0001261
INCLINATION    = 42.9991
RA_OF_ASC_NODE = 197.9855
ARG_OF_PERICENTER = 285.8724
MEAN_ANOMALY   = 218.7819

EPHEMERIS_TYPE = 0
CLASSIFICATION_TYPE = U
NORAD_CAT_ID   = 67320
ELEMENT_SET_NO = 999
REV_AT_EPOCH   = 491
BSTAR          = -.32386E-1
MEAN_MOTION_DOT = -.2099294E-1
MEAN_MOTION_DDOT = 0

CCSDS_OMM_VERS = 2.0
CREATION_DATE  = 
ORIGINATOR     = 

OBJECT_NAME    = STARLINK-36462
OBJECT_ID      = 2026-002S
CENTER_NAME    = EARTH
REF_FRAME      = TEME
TIME_SYSTEM    = UTC
MEAN_ELEMENT_THEORY = SGP/SGP4

EPOCH          = 2026-01-27T20:00:01.999008
MEAN_MOTION    = 15.56429534
ECCENTRICITY   = .0002135
INCLINATION    = 42.9993
RA_OF_ASC_NODE = 197.9755
ARG_OF_PERICENTER = 274.5089
MEAN_ANOMALY   = 234.1191

EPHEMERIS_TYPE = 0
CLASSIFICATION_TYPE = U
NORAD_CAT_ID   = 67321
ELEMENT_SET_NO = 999
REV_AT_EPOCH   = 485
BSTAR          = -.32126E-1
MEAN_MOTION_DOT = -.2078401E-1
MEAN_MOTION_DDOT = 0

CCSDS_OMM_VERS = 2.0
CREATION_DATE  = 
ORIGINATOR     = 

OBJECT_NAME    = STARLINK-36434
OBJECT_ID      = 2026-002T
CENTER_NAME    = EARTH
REF_FRAME      = TEME
TIME_SYSTEM    = UTC
MEAN_ELEMENT_THEORY = SGP/SGP4

EPOCH          = 2026-01-27T20:00:01.999008
MEAN_MOTION    = 15.56518140
ECCENTRICITY   = .0001197
INCLINATION    = 42.9992
RA_OF_ASC_NODE = 197.9805
ARG_OF_PERICENTER = 284.1595
MEAN_ANOMALY   = 222.4142

EPHEMERIS_TYPE = 0
CLASSIFICATION_TYPE = U
NORAD_CAT_ID   = 67322
ELEMENT_SET_NO = 999
REV_AT_EPOCH   = 485
BSTAR          = -.32285E-1
MEAN_MOTION_DOT = -.2093116E-1
MEAN_MOTION_DDOT = 0

CCSDS_OMM_VERS = 2.0
CREATION_DATE  = 
ORIGINATOR     = 

OBJECT_NAME    = STARLINK-36497
OBJECT_ID      = 2026-002U
CENTER_NAME    = EARTH
REF_FRAME      = TEME
TIME_SYSTEM    = UTC
MEAN_ELEMENT_THEORY = SGP/SGP4

EPOCH          = 2026-01-27T20:00:01.999008
MEAN_MOTION    = 15.56519806
ECCENTRICITY   = .000139
INCLINATION    = 42.9992
RA_OF_ASC_NODE = 197.9705
ARG_OF_PERICENTER = 285.7767
MEAN_ANOMALY   = 224.6299

EPHEMERIS_TYPE = 0
CLASSIFICATION_TYPE = U
NORAD_CAT_ID   = 67323
ELEMENT_SET_NO = 999
REV_AT_EPOCH   = 491
BSTAR          = -.3237E-1
MEAN_MOTION_DOT = -.2098295E-1
MEAN_MOTION_DDOT = 0

