STARLINK-36485          
1 67312U 26002H   26027.83335647 -.02098272  00000+0 -32368-1 0  9999
2 67312  42.9992 198.0282 0001660 282.2657 205.1371 15.56518183  4850
STARLINK-36445          
1 67313U 26002J   26027.83335647 -.02102795  00000+0 -32444-1 0  9991
2 67313  42.9991 198.0229 0001489 282.4636 206.8571 15.56522104  5005
STARLINK-36476          
1 67314U 26002K   26027.83335647 -.02102645  00000+0 -32443-1 0  9995
2 67314  42.9991 198.0190 0001410 284.0223 207.2144 15.56521805  4857
STARLINK-36463          
1 67315U 26002L   26027.83335647 -.02105644  00000+0 -32492-1 0  9992
2 67315  42.9992 198.0089 0001359 284.2685 210.7998 15.56524915  4910
STARLINK-36461          
1 67316U 26002M   26027.83335647 -.02097862  00000+0 -32362-1 0  9991
2 67316  42.9991 198.0036 0001510 285.0836 211.9038 15.56518836  5002
STARLINK-36450          
1 67317U 26002N   26027.83335647 -.02098062  00000+0 -32365-1 0  9998
2 67317  42.9993 197.9995 0001406 287.1058 211.7988 15.56520200  5000
STARLINK-36498          
1 67318U 26002P   26027.83335647 -.02093038  00000+0 -32283-1 0  9996
2 67318  42.9992 197.9887 0001455 286.4496 216.2899 15.56515904  4917
STARLINK-36470          
1 67319U 26002Q   26027.83335647 -.02104838  00000+0 -32477-1 0  9993
2 67319  42.9991 197.9945 0001442 281.2298 219.5909 15.56524362  4917
STARLINK-36500          
1 67320U 26002R   26027.83335647 -.02099294  00000+0 -32386-1 0  9993
2 67320  42.9991 197.9855 0001261 285.8724 218.7819 15.56522576  4918
STARLINK-36462          
1 67321U 26002S   26027.83335647 -.02078401  00000+0 -32126-1 0  9993
2 67321  42.9993 197.9755 0002135 274.5089 234.1191 15.56429534  4858
STARLINK-36434          
1 67322U 26002T   26027.83335647 -.02093116  00000+0 -32285-1 0  9990
2 67322  42.9992 197.9805 0001197 284.1595 222.4142 15.56518140  4858
STARLINK-36497          
1 67323U 26002U   26027.83335647 -.02098295  00000+0 -32370-1 0  9999
2 67323  42.9992 197.9705 0001390 285.7767 224.6299 15.56519806  4915
